H1 CPF  1  DLR 2021 04 16 10  6062 technosat            
H2  1704205 6203    42829 2021 04 16 00 00 00 2021 04 23 00 00 00    60 1 1  0 0 0
H9
10 0 59320  57600.000000  0      -1796946.254      -3706369.881       5611828.789
10 0 59320  57660.000000  0      -1741817.576      -3326237.739       5861915.700
10 0 59320  57720.000000  0      -1675956.113      -2932603.480       6087095.453
10 0 59320  57780.000000  0      -1599532.370      -2527226.065       6286422.501
10 0 59320  57840.000000  0      -1512776.622      -2111910.741       6459061.701
10 0 59320  57900.000000  0      -1415978.237      -1688500.857       6604291.626
10 0 59320  57960.000000  0      -1309484.694      -1258869.499       6721507.344
10 0 59320  58020.000000  0      -1193700.310       -824911.077       6810222.656
10 0 59320  58080.000000  0      -1069084.691       -388532.939       6870071.818
10 0 59320  58140.000000  0       -936150.872         48352.957       6900810.872
10 0 59320  58200.000000  0       -795463.159        483838.423       6902318.536
10 0 59320  58260.000000  0       -647634.691        916027.386       6874596.550
10 0 59320  58320.000000  0       -493324.721       1343044.106       6817769.515
10 0 59320  58380.000000  0       -333235.665       1763041.276       6732084.285
10 0 59320  58440.000000  0       -168109.889       2174207.996       6617908.853
10 0 59320  58500.000000  0          1273.730       2574777.505       6475730.731
10 0 59320  58560.000000  0        174103.427       2963034.707       6306154.946
10 0 59320  58620.000000  0        349538.377       3337323.536       6109901.568
10 0 59320  58680.000000  0        526712.715       3696054.052       5887802.731
10 0 59320  58740.000000  0        704739.736       4037709.223       5640799.207
10 0 59320  58800.000000  0        882716.244       4360851.375       5369936.569
10 0 59320  58860.000000  0       1059727.050       4664128.377       5076360.921
10 0 59320  58920.000000  0       1234849.578       4946279.442       4761314.124
10 0 59320  58980.000000  0       1407158.536       5206140.436       4426128.614
10 0 59320  59040.000000  0       1575730.630       5442648.768       4072221.971
10 0 59320  59100.000000  0       1739649.387       5654847.958       3701091.186
10 0 59320  59160.000000  0       1898010.161       5841891.846       3314306.387
10 0 59320  59220.000000  0       2049924.910       6003048.118       2913503.960
10 0 59320  59280.000000  0       2194526.886       6137701.269       2500379.676
10 0 59320  59340.000000  0       2330975.427       6245355.159       2076681.492
10 0 59320  59400.000000  0       2458460.630       6325634.921       1644201.992
10 0 59320  59460.000000  0       2576207.827       6378288.219       1204770.658
10 0 59320  59520.000000  0       2683481.907       6403185.969        760246.043
10 0 59320  59580.000000  0       2779591.505       6400322.512        312507.797
10 0 59320  59640.000000  0       2863892.990       6369815.217       -136551.389
10 0 59320  59700.000000  0       2935794.254       6311903.513       -585033.939
10 0 59320  59760.000000  0       2994758.257       6226947.294      -1031045.544
10 0 59320  59820.000000  0       3040306.291       6115424.781      -1472703.265
10 0 59320  59880.000000  0       3072020.963       5977929.873      -1908143.574
10 0 59320  59940.000000  0       3089548.904       5815168.953      -2335530.332
10 0 59320  60000.000000  0       3092603.159       5627957.161      -2753062.610
10 0 59320  60060.000000  0       3080965.225       5417214.147      -3158982.338
10 0 59320  60120.000000  0       3054486.735       5183959.348      -3551581.708
10 0 59320  60180.000000  0       3013090.795       4929306.852      -3929210.248
10 0 59320  60240.000000  0       2956772.988       4654459.938      -4290281.655
10 0 59320  60300.000000  0       2885601.999       4360705.218      -4633280.337
10 0 59320  60360.000000  0       2799719.877       4049406.438      -4956767.575
10 0 59320  60420.000000  0       2699341.991       3721998.041      -5259387.322
10 0 59320  60480.000000  0       2584756.642       3379978.462      -5539871.679
10 0 59320  60540.000000  0       2456324.311       3024903.163      -5797045.961
10 0 59320  60600.000000  0       2314476.546       2658377.517      -6029833.343
10 0 59320  60660.000000  0       2159714.506       2282049.514      -6237259.086
10 0 59320  60720.000000  0       1992607.195       1897602.387      -6418454.297
10 0 59320  60780.000000  0       1813789.435       1506747.185      -6572659.293
10 0 59320  60840.000000  0       1623959.523       1111215.256      -6699226.574
10 0 59320  60900.000000  0       1423876.561        712750.732      -6797623.373
10 0 59320  60960.000000  0       1214357.458        313103.002      -6867433.800
10 0 59320  61020.000000  0        996273.633        -85980.844      -6908360.522
10 0 59320  61080.000000  0        770547.462       -482763.531      -6920225.924
10 0 59320  61140.000000  0        538148.488       -875524.964      -6902972.831
10 0 59320  61200.000000  0        300089.398      -1262569.496      -6856664.834
10 0 59320  61260.000000  0         57421.776      -1642233.050      -6781486.165
10 0 59320  61320.000000  0       -188768.381      -2012890.112      -6677741.243
10 0 59320  61380.000000  0       -437365.434      -2372960.666      -6545853.757
10 0 59320  61440.000000  0       -687229.051      -2720916.969      -6386365.185
10 0 59320  61500.000000  0       -937199.300      -3055290.029      -6199932.812
10 0 59320  61560.000000  0      -1186101.891      -3374675.821      -5987327.374
10 0 59320  61620.000000  0      -1432753.592      -3677741.285      -5749430.272
10 0 59320  61680.000000  0      -1675967.767      -3963230.055      -5487230.332
10 0 59320  61740.000000  0      -1914560.042      -4229967.929      -5201820.102
10 0 59320  61800.000000  0      -2147354.069      -4476868.009      -4894391.646
10 0 59320  61860.000000  0      -2373187.344      -4702935.434      -4566231.868
10 0 59320  61920.000000  0      -2590917.043      -4907271.719      -4218717.379
10 0 59320  61980.000000  0      -2799425.825      -5089078.642      -3853308.948
10 0 59320  62040.000000  0      -2997627.600      -5247661.724      -3471545.563
10 0 59320  62100.000000  0      -3184473.236      -5382433.240      -3075038.088
10 0 59320  62160.000000  0      -3358956.167      -5492914.747      -2665462.536
10 0 59320  62220.000000  0      -3520117.878      -5578739.098      -2244552.995
10 0 59320  62280.000000  0      -3667053.213      -5639651.926      -1814094.210
10 0 59320  62340.000000  0      -3798915.460      -5675512.581      -1375913.862
10 0 59320  62400.000000  0      -3914921.181      -5686294.493       -931874.597
10 0 59320  62460.000000  0      -4014354.746      -5672084.972       -483865.840
10 0 59320  62520.000000  0      -4096572.554      -5633084.421        -33795.463
10 0 59320  62580.000000  0      -4161006.927      -5569605.004        416418.670
10 0 59320  62640.000000  0      -4207169.631      -5482068.739        864857.249
10 0 59320  62700.000000  0      -4234655.005      -5371005.019       1309608.092
10 0 59320  62760.000000  0      -4243142.649      -5237047.563       1748774.692
10 0 59320  62820.000000  0      -4232399.667      -5080930.856       2180484.640
10 0 59320  62880.000000  0      -4202282.482      -4903486.115       2602897.915
10 0 59320  62940.000000  0      -4152738.205      -4705636.794       3014215.006
10 0 59320  63000.000000  0      -4083805.544      -4488393.663       3412684.835
10 0 59320  63060.000000  0      -3995615.236      -4252849.478       3796612.432
10 0 59320  63120.000000  0      -3888390.008      -4000173.274       4164366.326
10 0 59320  63180.000000  0      -3762444.046      -3731604.275       4514385.582
10 0 59320  63240.000000  0      -3618182.029      -3448445.554       4845186.403
10 0 59320  63300.000000  0      -3456097.742      -3152057.485       5155368.369
10 0 59320  63360.000000  0      -3276772.241      -2843850.983       5443620.292
10 0 59320  63420.000000  0      -3080871.587      -2525280.601       5708725.611
10 0 59320  63480.000000  0      -2869144.202      -2197837.526       5949567.394
10 0 59320  63540.000000  0      -2642417.814      -1863042.425       6165132.882
10 0 59320  63600.000000  0      -2401596.067      -1522438.240       6354517.579
10 0 59320  63660.000000  0      -2147654.710      -1177582.906       6516928.893
10 0 59320  63720.000000  0      -1881637.383       -830042.052       6651689.158
10 0 59320  63780.000000  0      -1604651.138       -481381.839       6758238.064
10 0 59320  63840.000000  0      -1317861.774       -133161.990       6836134.650
10 0 59320  63900.000000  0      -1022488.925        213071.137       6885058.976
10 0 59320  63960.000000  0       -719800.815        555791.412       6904813.296
10 0 59320  64020.000000  0       -411108.772        893499.644       6895322.690
10 0 59320  64080.000000  0        -97761.540       1224730.094       6856635.235
10 0 59320  64140.000000  0        218860.621       1548056.809       6788921.701
10 0 59320  64200.000000  0        537352.035       1862099.750       6692474.730
10 0 59320  64260.000000  0        856287.827       2165530.611       6567707.484
10 0 59320  64320.000000  0       1174230.251       2457078.357       6415151.916
10 0 59320  64380.000000  0       1489735.124       2735534.515       6235456.561
10 0 59320  64440.000000  0       1801358.339       2999758.176       6029383.914
10 0 59320  64500.000000  0       2107662.446       3248680.712       5797807.322
10 0 59320  64560.000000  0       2407223.283       3481310.145       5541707.442
10 0 59320  64620.000000  0       2698636.653       3696735.182       5262168.221
10 0 59320  64680.000000  0       2980524.955       3894128.847       4960372.354
10 0 59320  64740.000000  0       3251543.660       4072751.625       4637596.340
99
